QIANFAN-17              
1 60395U 24140S   25312.81222588  .00000048  00000+0  55966-4 0  9999
2 60395  88.9741 302.9481 0013459 309.4479  50.5481 13.50971656 63552
QIANFAN-18              
1 60396U 24140T   25312.79163162  .00000043  00000+0  48515-4 0  9996
2 60396  88.9734 302.4863 0012443 290.2443  69.7370 13.50971671 62942
QIANFAN-19              
1 61552U 24185A   25312.83586823  .00000843  00000+0  43466-3 0  9995
2 61552  88.9801  81.8196 0008632  63.4933 296.7138 14.14240230 64877
QIANFAN-20              
1 61553U 24185B   25312.80830241  .00000819  00000+0  46712-3 0  9999
2 61553  88.9798  82.1124 0007928  94.1784 266.0306 14.08784204 64717
QIANFAN-21              
1 61554U 24185C   25312.84675888  .00001109  00000+0  49031-3 0  9998
2 61554  88.9716  80.9426 0012665 111.1539 249.1008 14.22532828 65150
QIANFAN-22              
1 61555U 24185D   25312.79338560  .00000288  00000+0  23739-3 0  9990
2 61555  88.9781  82.9592 0008516  99.1393 261.0742 13.86283806 64236
QIANFAN-23              
1 61556U 24185E   25312.78839649  .00000874  00000+0  43393-3 0  9993
2 61556  88.9793  81.6506 0009657  72.3466 287.8776 14.16238569 64943
QIANFAN-24              
1 61557U 24185F   25312.80778124  .00001091  00000+0  47138-3 0  9990
2 61557  88.9775  81.1089 0011094  57.4579 302.7684 14.23736793 65195
